BATSU-CS1 (IRAZU)       
1 43468U 98067NR  20001.54486859  .00075242  00000-0  29285-3 0  9996
2 43468  51.6343  38.2526 0003275  25.4411 334.6754 15.86418474193989
CUBERRT                 
1 43546U 98067NU  19365.65587266  .00008001  00000-0  74235-4 0  9995
2 43546  51.6368  64.0206 0003600 154.5659 205.5515 15.68514011 83719
TEMPEST-D               
1 43547U 98067NV  20001.65298739  .00000505  00000-0  12384-4 0  9997
2 43547  51.6401  77.4783 0005437 140.1235 220.0159 15.60143365 83300
RAINCUBE                
1 43548U 98067NW  20001.75774136  .00012582  00000-0  12253-3 0  9991
2 43548  51.6356  66.1107 0004097 157.7162 202.4013 15.66669145 83914
HALOSAT                 
1 43549U 98067NX  20001.45662689  .00014051  00000-0  13733-3 0  9995
2 43549  51.6372  67.8865 0004019 158.4313 201.6853 15.66460149 83424
ENDUROSAT ONE           
1 43551U 98067NZ  20001.59011610  .00018160  00000-0  15486-3 0  9997
2 43551  51.6356  61.9999 0003700 172.0559 188.0497 15.69601048 83927
EQUISAT                 
1 43552U 98067PA  20001.60753207  .00012481  00000-0  12068-3 0  9998
2 43552  51.6378  65.9331 0004542 167.4546 192.6564 15.66855858 83838
AEROCUBE 12A            
1 43556U 18046C   19365.80215893  .00001341  00000-0  59027-4 0  9998
2 43556  51.6409 195.5809 0008837  55.2410 304.9401 15.29261406 81567
AEROCUBE 12B            
1 43557U 18046D   20001.81654236  .00000155  00000-0  17994-4 0  9996
2 43557  51.6408 191.0960 0008950  58.8742 301.3115 15.29058105 81663
UITMSAT-1               
1 43589U 98067PD  20001.43134263  .00015022  00000-0  13915-3 0  9990
2 43589  51.6347  66.8938 0003754 177.7362 182.3652 15.67734571 79547
MAYA-1                  
1 43590U 98067PE  19365.78714148  .00017478  00000-0  16107-3 0  9990
2 43590  51.6347  70.0994 0003887 175.7367 184.3663 15.67724239 79373
BHUTAN-1                
1 43591U 98067PF  19365.89758588  .00017174  00000-0  15789-3 0  9997
2 43591  51.6360  69.3804 0004018 176.9124 183.1898 15.67798093 79399
SIRIUSSAT-1             
1 43595U 98067PG  20001.70921920  .00012785  00000-0  12518-3 0  9992
2 43595  51.6350  68.0130 0002440 127.9897 232.1319 15.66517303 78664
SIRIUSSAT-2             
1 43596U 98067PH  20001.18582156  .00016224  00000-0  15832-3 0  9993
2 43596  51.6359  71.3260 0002897 127.7174 232.4085 15.66364919 78573
TANUSHA-3               
1 43597U 98067PJ  19365.89098864  .00024445  00000-0  20319-3 0  9991
2 43597  51.6336  67.7422 0001772 143.6797 216.4320 15.70009450 78594
SURFSAT                 
1 43614U 18070B   20001.49397565  .00001864  00000-0  49382-4 0  9994
2 43614  93.0373  85.0931 0012856 265.7648  94.2136 15.38397249 72657
CP7 (DAVE)              
1 43615U 18070C   19365.79620681  .00002064  00000-0  54849-4 0  9994
2 43615  93.0377  84.8011 0013003 268.4973  91.4791 15.38287610 72548
ELFIN-B                 
1 43616U 18070D   20001.15912630  .00003151  00000-0  80948-4 0  9999
2 43616  93.0334  84.8603 0013575 269.7549  90.2150 15.39281226 72629
ELFIN-A                 
1 43617U 18070E   20001.14386724  .00003326  00000-0  85125-4 0  9994
2 43617  93.0390  85.2253 0012864 265.8098  94.1687 15.39397397 72629
CUBEBEL-1 (BSUSAT-1)    
1 43666U 18083E   20001.83082795  .00000745  00000-0  40019-4 0  9994
2 43666  97.5044  29.8318 0013972 219.0999 314.3347 15.17924347 65186
DEBRISSAT-2             
1 43680U 98067PR  20001.73616500  .00030949  00000-0  22066-3 0  9996
2 43680  51.6333  60.6709 0000723 179.3470 180.7530 15.73525471 87497
CICERO 10               
1 43690U 18088A   19365.90386934  .00000699  00000-0  30589-4 0  9996
2 43690  85.0378 189.3354 0014061 200.6271 159.4404 15.19949742 63151
IRVINE01                
1 43693U 18088D   20001.82706735  .00001915  00000-0  81489-4 0  9991
2 43693  85.0354 187.8872 0017820 181.6569 178.4617 15.22137634 63341
PROXIMA I               
1 43694U 18088E   20001.81127316  .00000785  00000-0  32750-4 0  9994
2 43694  85.0321 187.6904 0019442 173.4172 186.7329 15.21686157 63341
PROXIMA II              
1 43696U 18088G   20001.80983533  .00000778  00000-0  32409-4 0  9999
2 43696  85.0322 187.6934 0019485 173.3582 186.7922 15.21689924 63342
FACSAT-1                
1 43721U 18096C   20001.78132309  .00000733  00000-0  30583-4 0  9993
2 43721  97.4402  76.1511 0017627   0.2984 359.8262 15.26765439 60809
CENTAURI-2              
1 43722U 18096D   20001.79125174  .00001205  00000-0  47927-4 0  9992
2 43722  97.4408  76.2999 0017659   0.4971 359.6283 15.27140215 60801
INNOSAT-2               
1 43738U 18096V   20001.82593994  .00001514  00000-0  55230-4 0  9991
2 43738  97.4417  77.6454 0023954   8.0849 352.0772 15.29498004 60907
SIRION PATHFINDER-2     
1 43759U 18099B   20001.80916205  .00000460  00000-0  46989-4 0  9999
2 43759  97.7258  76.1651 0014833  28.7570 331.4465 14.95209585 58874
CORVUS-BC 4             
1 43767U 18099K   20001.82177830  .00000330  00000-0  35686-4 0  9991
2 43767  97.7243  75.7678 0012522  33.3475 326.8531 14.94651555 58868
MOVE-II                 
1 43780U 18099Y   20001.76381156  .00000356  00000-0  37552-4 0  9999
2 43780  97.7260  76.0221 0014391  40.0774 320.1506 14.95240406 58851
SPACEBEE-7              
1 43816U 18099BL  20001.46975615  .00000428  00000-0  43734-4 0  9994
2 43816  97.7269  76.0173 0013763  26.3654 333.8264 14.95554116 58388
SPACEBEE-5              
1 43817U 18099BM  20001.74879684  .00001167  00000-0  10913-3 0  9998
2 43817  97.7308  76.5116 0013358  26.5193 333.6709 14.95981197 58436
SPACEBEE-6              
1 43818U 18099BN  19365.91633154  .00000031  00000-0  79907-5 0  9998
2 43818  97.7283  75.5407 0013793  27.5609 332.6341 14.95690250 58457
SHIELDS 1               
1 43850U 18104B   20001.07684116  .00000041  00000-0  00000+0 0  9994
2 43850  85.0307 286.6408 0014431 337.7597  22.3004 15.21237373 57875
STF-1                   
1 43852U 18104D   20001.06775259  .00000041  00000-0  00000+0 0  9994
2 43852  85.0342 287.0592 0014436 352.7903   7.3199 15.20937439 57853
ZACUBE-2                
1 43907U 18111AH  20001.81388327  .00000461  00000-0  21560-4 0  9997
2 43907  97.2788 266.4845 0022218  20.0576 340.1530 15.24397122 56470
LUME 1                  
1 43908U 18111AJ  20001.12272012  .00000944  00000-0  40772-4 0  9997
2 43908  97.2788 265.8898 0022159  22.2717 337.9478 15.24694636 56371
AOBA VELOX-IV           
1 43940U 19003J   20001.78054988  .00001297  00000-0  55271-4 0  9998
2 43940  97.2522  58.6440 0025896  95.5040 358.9391 15.24417837 53108
CATSAT-2                
1 44029U 98067PV  20001.82974890  .00009187  00000-0  11619-3 0  9995
2 44029  51.6392  82.4424 0004252 168.6331 191.4759 15.60317119 52313
DELPHINI                
1 44030U 98067PW  20001.66631768  .00008924  00000-0  11116-3 0  9993
2 44030  51.6365  82.8022 0003933 163.3852 196.7271 15.60765332 52263
UNITE                   
1 44031U 98067PX  20001.76932006  .00005324  00000-0  75368-4 0  9995
2 44031  51.6380  85.0167 0003163 156.1141 203.9999 15.58308406 52240
TECHEDSAT 8             
1 44032U 98067PY  20001.44948502  .00044454  00000-0  32961-3 0  9997
2 44032  51.6343  73.0688 0000509 213.0709 147.0257 15.72425678 52353
CATSAT-1                
1 44033U 98067PZ  20001.50930076  .00009343  00000-0  11808-3 0  9997
2 44033  51.6394  84.0551 0004151 165.3006 194.8109 15.60311661 52176
RAAVANA-1               
1 44329U 98067QE  20001.27593774  .00006198  00000-0  98607-4 0  9997
2 44329  51.6405  95.2437 0006929  94.4305 265.7478 15.54736005 30813
UGUISU                  
1 44330U 98067QF  19365.57428220  .00006779  00000-0  10741-3 0  9993
2 44330  51.6402  98.8059 0006902  90.6536 269.5246 15.54676010 30685
NEPALISAT-1             
1 44331U 98067QG  20001.52867562  .00006111  00000-0  97208-4 0  9998
2 44331  51.6404  93.9320 0006959  96.3370 263.8413 15.54772195 30848
SPOOQY-1                
1 44332U 98067QH  20001.52602684  .00005957  00000-0  95001-4 0  9997
2 44332  51.6403  93.9113 0005818  98.5504 261.6147 15.54755874 30805
SPACEBEE-9              
1 44370U 19037F   20001.32119615  .00004603  00000-0  11727-3 0  9993
2 44370  45.0162 334.0694 0014940 280.2831  79.6372 15.40966114 28640
SPACEBEE-8              
1 44371U 19037G   19365.63017958  .00011008  00000-0  25148-3 0  9995
2 44371  45.0178 336.5250 0013148 282.2588  77.6821 15.42973824 28547
IOD-1 GEMS              
1 44385U 98067QK  20001.67002057  .00007752  00000-0  11876-3 0  9991
2 44385  51.6413  93.3990 0003250  62.9364 297.1958 15.55378846 28338
MOVE-IIB                
1 44398U 19038N   20001.86909061  .00000841  00000-0  52543-4 0  9997
2 44398  97.5149 325.5164 0025239 348.4492  11.6156 15.11948741 27253
SONATE                  
1 44400U 19038Q   19365.88125060  .00000348  00000-0  24114-4 0  9998
2 44400  97.5170 324.5620 0025082 350.0667  10.0064 15.11787195 27105
LUCKY-7                 
1 44406U 19038W   20001.45342790  .00000527  00000-0  34333-4 0  9990
2 44406  97.5169 325.1754 0024498 348.1927  11.8726 15.12006828 27181
BEESAT 9                
1 44412U 19038AC  20001.85398010  .00000677  00000-0  42998-4 0  9999
2 44412  97.5165 325.5549 0022763 352.9926   7.0983 15.12015182 26943
JAISAT-1                
1 44419U 19038F   20001.13383990  .00000718  00000-0  44790-4 0  9996
2 44419  97.5165 324.9836 0021673 355.2190   4.8830 15.12499281 27156
SWIATOWID               
1 44426U 98067QL  20001.81613637  .00010423  00000-0  15630-3 0  9996
2 44426  51.6440  92.6787 0003883  58.5680  30.4709 15.55539149 28375
KRAKSAT                 
1 44427U 98067QM  20001.50933834  .00004478  00000-0  76268-4 0  9995
2 44427  51.6419  95.3191 0004037  54.2134 305.9231 15.53593139 28355
VCC A                   
1 44428U 98067QN  20001.78685525  .00005746  00000-0  93597-4 0  9990
2 44428  51.6414  93.4253 0003330  73.5586 286.5771 15.54241140 28401
